{"type": "FeatureCollection", "features": [ {"type": "Feature", "properties": {"norad_id": 35462, "name": "COSMOS 2251 DEB", "group": "cosmos-2251-debris", "lat": -21.12145072561757, "lon": -93.27187854797975, "alt_km": 744.681781949198, "timestamp": "2025-12-10T07:43:55.175432+00:00", "meta": {"OBJECT_NAME": "COSMOS 2251 DEB", "OBJECT_ID": "1993-036ALG", "EPOCH": "2025-12-08T12:09:24.774336", "MEAN_MOTION": 14.29237925, "ECCENTRICITY": 0.00868955, "INCLINATION": 74.0371, "RA_OF_ASC_NODE": 276.3719, "ARG_OF_PERICENTER": 312.4106, "MEAN_ANOMALY": 46.9712, "EPHEMERIS_TYPE": 0, "CLASSIFICATION_TYPE": "U", "NORAD_CAT_ID": 35462, "ELEMENT_SET_NO": 999, "REV_AT_EPOCH": 66320, "BSTAR": 0.0026621156, "MEAN_MOTION_DOT": 7.028e-05, "MEAN_MOTION_DDOT": 0}, "tle": {"line1": "1 35462U 93036ALG 25342.50653674  .00007028  00000+0  26621-2 0  9998", "line2": "2 35462  74.0371 276.3719 0086895 312.4106  46.9712 14.29237925663202"}}, "geometry": {"type": "Point", "coordinates": [-93.27187854797975, -21.12145072561757]}}, {"type": "Feature", "properties": {"norad_id": 35465, "name": "COSMOS 2251 DEB", "group": "cosmos-2251-debris", "lat": -73.30286265986054, "lon": 94.60856698352005, "alt_km": 756.4780593583455, "timestamp": "2025-12-10T07:43:55.175442+00:00", "meta": {"OBJECT_NAME": "COSMOS 2251 DEB", "OBJECT_ID": "1993-036ALK", "EPOCH": "2025-12-09T07:13:54.181920", "MEAN_MOTION": 14.44306043, "ECCENTRICITY": 0.0063804, "INCLINATION": 73.9983, "RA_OF_ASC_NODE": 203.4389, "ARG_OF_PERICENTER": 4.3071, "MEAN_ANOMALY": 355.8621, "EPHEMERIS_TYPE": 0, "CLASSIFICATION_TYPE": "U", "NORAD_CAT_ID": 35465, "ELEMENT_SET_NO": 999, "REV_AT_EPOCH": 87192, "BSTAR": 0.00063465, "MEAN_MOTION_DOT": 2.21e-05, "MEAN_MOTION_DDOT": 0}, "tle": {"line1": "1 35465U 93036ALK 25343.30132155  .00002210  00000+0  63465-3 0  9992", "line2": "2 35465  73.9983 203.4389 0063804   4.3071 355.8621 14.44306043871925"}}, "geometry": {"type": "Point", "coordinates": [94.60856698352005, -73.30286265986054]}}, {"type": "Feature", "properties": {"norad_id": 35469, "name": "COSMOS 2251 DEB", "group": "cosmos-2251-debris", "lat": 50.627493099974096, "lon": 48.85857344754348, "alt_km": 756.8337332752317, "timestamp": "2025-12-10T07:43:55.175452+00:00", "meta": {"OBJECT_NAME": "COSMOS 2251 DEB", "OBJECT_ID": "1993-036ALP", "EPOCH": "2025-12-07T11:35:01.685760", "MEAN_MOTION": 14.4981221, "ECCENTRICITY": 0.00771882, "INCLINATION": 74.0177, "RA_OF_ASC_NODE": 33.7518, "ARG_OF_PERICENTER": 190.4188, "MEAN_ANOMALY": 169.5378, "EPHEMERIS_TYPE": 0, "CLASSIFICATION_TYPE": "U", "NORAD_CAT_ID": 35469, "ELEMENT_SET_NO": 999, "REV_AT_EPOCH": 88035, "BSTAR": 0.00021613901, "MEAN_MOTION_DOT": 8.36e-06, "MEAN_MOTION_DDOT": 0}, "tle": {"line1": "1 35469U 93036ALP 25341.48265840  .00000836  00000+0  21614-3 0  9993", "line2": "2 35469  74.0177  33.7518 0077188 190.4188 169.5378 14.49812210880359"}}, "geometry": {"type": "Point", "coordinates": [48.85857344754348, 50.627493099974096]}}, {"type": "Feature", "properties": {"norad_id": 35475, "name": "COSMOS 2251 DEB", "group": "cosmos-2251-debris", "lat": 73.38896364419031, "lon": -83.52265654133383, "alt_km": 667.340686601141, "timestamp": "2025-12-10T07:43:55.175462+00:00", "meta": {"OBJECT_NAME": "COSMOS 2251 DEB", "OBJECT_ID": "1993-036ALV", "EPOCH": "2025-12-09T05:09:42.823008", "MEAN_MOTION": 14.69608937, "ECCENTRICITY": 0.0020836, "INCLINATION": 74.0215, "RA_OF_ASC_NODE": 172.4599, "ARG_OF_PERICENTER": 245.5182, "MEAN_ANOMALY": 114.3816, "EPHEMERIS_TYPE": 0, "CLASSIFICATION_TYPE": "U", "NORAD_CAT_ID": 35475, "ELEMENT_SET_NO": 999, "REV_AT_EPOCH": 65565, "BSTAR": 0.0022725, "MEAN_MOTION_DOT": 0.00013549, "MEAN_MOTION_DDOT": 0}, "tle": {"line1": "1 35475U 93036ALV 25343.21507897  .00013549  00000+0  22725-2 0  9992", "line2": "2 35475  74.0215 172.4599 0020836 245.5182 114.3816 14.69608937655652"}}, "geometry": {"type": "Point", "coordinates": [-83.52265654133383, 73.38896364419031]}}, {"type": "Feature", "properties": {"norad_id": 35476, "name": "COSMOS 2251 DEB", "group": "cosmos-2251-debris", "lat": -63.78280530870273, "lon": -78.63708917246987, "alt_km": 661.6416255494778, "timestamp": "2025-12-10T07:43:55.175472+00:00", "meta": {"OBJECT_NAME": "COSMOS 2251 DEB", "OBJECT_ID": "1993-036ALW", "EPOCH": "2025-12-09T06:28:55.464096", "MEAN_MOTION": 14.75554445, "ECCENTRICITY": 0.0017453, "INCLINATION": 73.9778, "RA_OF_ASC_NODE": 67.7269, "ARG_OF_PERICENTER": 51.1458, "MEAN_ANOMALY": 11.4663, "EPHEMERIS_TYPE": 0, "CLASSIFICATION_TYPE": "U", "NORAD_CAT_ID": 35476, "ELEMENT_SET_NO": 999, "REV_AT_EPOCH": 87836, "BSTAR": 0.002295, "MEAN_MOTION_DOT": 0.00015683, "MEAN_MOTION_DDOT": 0}, "tle": {"line1": "1 35476U 93036ALW 25343.27008639  .00015683  00000+0  22950-2 0  9990", "line2": "2 35476  73.9778  67.7269 0017453  51.1458  11.4663 14.75554445878366"}}, "geometry": {"type": "Point", "coordinates": [-78.63708917246987, -63.78280530870273]}}, {"type": "Feature", "properties": {"norad_id": 35580, "name": "COSMOS 2251 DEB", "group": "cosmos-2251-debris", "lat": 59.63906553050301, "lon": -147.6255004790415, "alt_km": 1057.4163315053565, "timestamp": "2025-12-10T07:43:55.175483+00:00", "meta": {"OBJECT_NAME": "COSMOS 2251 DEB", "OBJECT_ID": "1993-036ALX", "EPOCH": "2025-12-06T21:51:49.269024", "MEAN_MOTION": 13.83821036, "ECCENTRICITY": 0.02818687, "INCLINATION": 73.9, "RA_OF_ASC_NODE": 188.633, "ARG_OF_PERICENTER": 195.0077, "MEAN_ANOMALY": 164.256, "EPHEMERIS_TYPE": 0, "CLASSIFICATION_TYPE": "U", "NORAD_CAT_ID": 35580, "ELEMENT_SET_NO": 999, "REV_AT_EPOCH": 62176, "BSTAR": 0.0026984958, "MEAN_MOTION_DOT": 4.042e-05, "MEAN_MOTION_DDOT": 0}, "tle": {"line1": "1 35580U 93036ALX 25340.91098691  .00004042  00000+0  26985-2 0  9990", "line2": "2 35580  73.9000 188.6330 0281868 195.0077 164.2560 13.83821036621764"}}, "geometry": {"type": "Point", "coordinates": [-147.6255004790415, 59.63906553050301]}}, {"type": "Feature", "properties": {"norad_id": 35583, "name": "COSMOS 2251 DEB", "group": "cosmos-2251-debris", "lat": 13.276395426021256, "lon": -140.16200227977353, "alt_km": 1243.5341646350043, "timestamp": "2025-12-10T07:43:55.175493+00:00", "meta": {"OBJECT_NAME": "COSMOS 2251 DEB", "OBJECT_ID": "1993-036AMA", "EPOCH": "2025-12-09T01:32:45.405888", "MEAN_MOTION": 13.55325577, "ECCENTRICITY": 0.03856444, "INCLINATION": 73.9171, "RA_OF_ASC_NODE": 217.9725, "ARG_OF_PERICENTER": 242.9971, "MEAN_ANOMALY": 113.128, "EPHEMERIS_TYPE": 0, "CLASSIFICATION_TYPE": "U", "NORAD_CAT_ID": 35583, "ELEMENT_SET_NO": 999, "REV_AT_EPOCH": 82362, "BSTAR": 0.00076651007, "MEAN_MOTION_DOT": 8.31e-06, "MEAN_MOTION_DDOT": 0}, "tle": {"line1": "1 35583U 93036AMA 25343.06441442  .00000831  00000+0  76651-3 0  9996", "line2": "2 35583  73.9171 217.9725 0385644 242.9971 113.1280 13.55325577823621"}}, "geometry": {"type": "Point", "coordinates": [-140.16200227977353, 13.276395426021256]}}, {"type": "Feature", "properties": {"norad_id": 35585, "name": "COSMOS 2251 DEB", "group": "cosmos-2251-debris", "lat": 29.64148362575098, "lon": 163.03382903040298, "alt_km": 1074.1326258755962, "timestamp": "2025-12-10T07:43:55.175503+00:00", "meta": {"OBJECT_NAME": "COSMOS 2251 DEB", "OBJECT_ID": "1993-036AMC", "EPOCH": "2025-12-09T10:22:29.182080", "MEAN_MOTION": 13.75233848, "ECCENTRICITY": 0.03105431, "INCLINATION": 73.9724, "RA_OF_ASC_NODE": 353.9327, "ARG_OF_PERICENTER": 266.8304, "MEAN_ANOMALY": 161.3177, "EPHEMERIS_TYPE": 0, "CLASSIFICATION_TYPE": "U", "NORAD_CAT_ID": 35585, "ELEMENT_SET_NO": 999, "REV_AT_EPOCH": 64018, "BSTAR": 0.0019149751, "MEAN_MOTION_DOT": 2.583e-05, "MEAN_MOTION_DDOT": 0}, "tle": {"line1": "1 35585U 93036AMC 25343.43228220  .00002583  00000+0  19150-2 0  9992", "line2": "2 35585  73.9724 353.9327 0310543 266.8304 161.3177 13.75233848640186"}}, "geometry": {"type": "Point", "coordinates": [163.03382903040298, 29.64148362575098]}}, {"type": "Feature", "properties": {"norad_id": 35586, "name": "COSMOS 2251 DEB", "group": "cosmos-2251-debris", "lat": -2.189412552585714, "lon": 126.97702686675007, "alt_km": 766.1531545783837, "timestamp": "2025-12-10T07:43:55.175513+00:00", "meta": {"OBJECT_NAME": "COSMOS 2251 DEB", "OBJECT_ID": "1993-036AMD", "EPOCH": "2025-12-09T15:43:44.050080", "MEAN_MOTION": 13.52082947, "ECCENTRICITY": 0.0404687, "INCLINATION": 74.02, "RA_OF_ASC_NODE": 307.4172, "ARG_OF_PERICENTER": 183.4058, "MEAN_ANOMALY": 354.3417, "EPHEMERIS_TYPE": 0, "CLASSIFICATION_TYPE": "U", "NORAD_CAT_ID": 35586, "ELEMENT_SET_NO": 999, "REV_AT_EPOCH": 60340, "BSTAR": 0.00055296, "MEAN_MOTION_DOT": 5.88e-06, "MEAN_MOTION_DDOT": 0}, "tle": {"line1": "1 35586U 93036AMD 25343.65537095  .00000588  00000+0  55296-3 0  9995", "line2": "2 35586  74.0200 307.4172 0404687 183.4058 354.3417 13.52082947603405"}}, "geometry": {"type": "Point", "coordinates": [126.97702686675007, -2.189412552585714]}}, {"type": "Feature", "properties": {"norad_id": 35587, "name": "COSMOS 2251 DEB", "group": "cosmos-2251-debris", "lat": 73.9159606064972, "lon": 159.01757130751662, "alt_km": 716.5918833588948, "timestamp": "2025-12-10T07:43:55.175523+00:00", "meta": {"OBJECT_NAME": "COSMOS 2251 DEB", "OBJECT_ID": "1993-036AME", "EPOCH": "2025-12-08T22:40:36.984000", "MEAN_MOTION": 14.71496851, "ECCENTRICITY": 0.0102808, "INCLINATION": 74.0064, "RA_OF_ASC_NODE": 65.8177, "ARG_OF_PERICENTER": 254.3493, "MEAN_ANOMALY": 104.6316, "EPHEMERIS_TYPE": 0, "CLASSIFICATION_TYPE": "U", "NORAD_CAT_ID": 35587, "ELEMENT_SET_NO": 999, "REV_AT_EPOCH": 66290, "BSTAR": 0.00040626, "MEAN_MOTION_DOT": 2.702e-05, "MEAN_MOTION_DDOT": 0}, "tle": {"line1": "1 35587U 93036AME 25342.94487250  .00002702  00000+0  40626-3 0  9995", "line2": "2 35587  74.0064  65.8177 0102808 254.3493 104.6316 14.71496851662904"}}, "geometry": {"type": "Point", "coordinates": [159.01757130751662, 73.9159606064972]}}]}